OPS 6582 (TRANSIT 5B-5) 
1 00965U 64083D   23158.89764139  .00000052  00000+0  61035-4 0  9992
2 00965  90.0336 196.6559 0039009 269.9259 263.7680 13.56825471893719
OSCAR 7 (AO-7)          
1 07530U 74089B   23158.92884880 -.00000038  00000+0  50826-4 0  9995
2 07530 101.9464 145.5435 0012656  81.4862 334.8115 12.53664613222017
UOSAT 2 (UO-11)         
1 14781U 84021B   23158.89311577  .00001473  00000+0  17924-3 0  9996
2 14781  97.6568 136.1842 0006910 224.8250 135.2408 14.84876588 92764
NOAA 9                  
1 15427U 84123A   23158.87765190  .00000152  00000+0  10010-3 0  9991
2 15427  99.0890 142.7482 0013873 236.6526 181.6729 14.16366288986929
LUSAT (LO-19)           
1 20442U 90005G   23158.88610092  .00000183  00000+0  83163-4 0  9995
2 20442  98.8431 135.2034 0011227 201.0201 159.0522 14.33259859744013
ITAMSAT (IO-26)         
1 22826U 93061D   23158.90983991  .00000163  00000+0  79762-4 0  9990
2 22826  98.8359 201.5140 0010105  82.5852 277.6478 14.30667205549232
RADIO ROSTO (RS-15)     
1 23439U 94085A   23158.86678846 -.00000026  00000+0  47671-3 0  9995
2 23439  64.8174 290.7596 0162605 211.8561 147.2446 11.27574346171271
JAS-2 (FO-29)           
1 24278U 96046B   23158.87424792 -.00000001  00000+0  31468-4 0  9997
2 24278  98.5277 138.6989 0351331  81.0755 282.9979 13.53145560323679
NOAA 15                 
1 25338U 98030A   23158.89707227  .00000266  00000+0  12881-3 0  9998
2 25338  98.6058 188.1127 0009936 347.8457  12.2482 14.26328754303683
TECHSAT 1B (GO-32)      
1 25397U 98043D   23158.87443959  .00000113  00000+0  69327-4 0  9993
2 25397  98.8682 116.2503 0001935 127.8673 232.2681 14.23876352294009
ISS (ZARYA)             
1 25544U 98067A   23158.86946759  .00014998  00000+0  26481-3 0  9997
2 25544  51.6427  14.7242 0005390  62.1946 115.7588 15.50572363400345
ORSTED                  
1 25635U 99008B   23158.85461308  .00001089  00000+0  26093-3 0  9991
2 25635  96.4627 305.3404 0138493 125.7837 235.6329 14.49056373281730
PHASE 3D (AO-40)        
1 26609U 00072B   23158.47923459 -.00000061  00000+0  00000+0 0  9990
2 26609   6.0245 182.8839 7915491 165.0173 253.5631  1.25587635103618
PCSAT (NO-44)           
1 26931U 01043C   23158.90454168  .00000147  00000+0  87542-4 0  9996
2 26931  67.0507 220.7935 0008010 273.9356  86.0830 14.30922205132256
SAUDISAT 1C (SO-50)     
1 27607U 02058C   23158.82354576  .00001645  00000+0  24200-3 0  9992
2 27607  64.5548 293.6357 0069926 226.5646 132.9626 14.77285795100841
CUTE-1 (CO-55)          
1 27844U 03031E   23158.89650690  .00000381  00000+0  18906-3 0  9992
2 27844  98.6773 166.2897 0010479 146.5523 213.6319 14.22780728 34411
CUBESAT XI-IV (CO-57)   
1 27848U 03031J   23158.48230560  .00000327  00000+0  16691-3 0  9990
2 27848  98.6810 166.3011 0010036 161.8952 198.2585 14.22291113 34172
MOZHAYETS 4 (RS-22)     
1 27939U 03042A   23158.93776455  .00001363  00000+0  24438-3 0  9990
2 27939  98.2423 305.8297 0012975 160.6617 314.6729 14.68370902 53050
INMARSAT 4-F1           
1 28628U 05009A   23158.83868834 -.00000261  00000+0  00000+0 0  9995
2 28628   3.9049  38.4102 0002975  44.3811 258.5897  1.00270926 66581
NOAA 18                 
1 28654U 05018A   23158.86056025  .00000262  00000+0  16431-3 0  9997
2 28654  98.9096 233.2958 0014989  50.1200 310.1287 14.12948225930168
CUBESAT XI-V            
1 28895U 05043F   23158.85512624  .00001694  00000+0  31993-3 0  9993
2 28895  98.1527 290.9868 0017618 101.5486 258.7696 14.65638184939444
METOP-A                 
1 29499U 06044A   23158.87875450  .00001265  00000+0  17265-3 0  9997
2 29499  98.4009 219.0649 0193504 332.5002 113.2052 14.68563117862814
CARTOSAT-2 (IRS-P7)     
1 29710U 07001B   23158.88720955  .00036355  00000+0  50127-3 0  9999
2 29710  97.8924 295.2363 0099109 234.2498 124.9505 15.51425843890865
CAPE-1                  
1 31130U 07012P   23158.89781790  .00001318  00000+0  27941-3 0  9994
2 31130  98.3078 102.9855 0091722 271.7813  87.2882 14.58358469856877
CARTOSAT-2A             
1 32783U 08021A   23158.88681796  .00001104  00000+0  15731-3 0  9991
2 32783  97.9164 219.5012 0014014  97.8298 262.4505 14.78708361815456
CUTE-1.7+APD II (CO-65) 
1 32785U 08021C   23158.74240995  .00003285  00000+0  32719-3 0  9997
2 32785  97.7059 124.9007 0013526 129.4139 230.8280 14.92221512819418
COMPASS-1               
1 32787U 08021E   23158.91866029  .00008165  00000+0  64054-3 0  9999
2 32787  97.5903 135.6115 0012591  61.5199 298.7292 15.01139300821264
AAUSAT-II               
1 32788U 08021F   23158.90154876  .00010573  00000+0  77424-3 0  9990
2 32788  97.5585 138.5277 0008862  36.7496 323.4336 15.03708799821713
DELFI-C3 (DO-64)        
1 32789U 08021G   23158.85211999  .00053889  00000+0  15455-2 0  9997
2 32789  97.3027 180.4077 0009258 144.0361 216.1507 15.35658807825958
SEEDS II (CO-66)        
1 32791U 08021J   23158.64491155  .00005775  00000+0  51104-3 0  9994
2 32791  97.6549 130.0827 0013586  85.1283 275.1489 14.96597988820232
YUBILEINY (RS-30)       
1 32953U 08025A   23158.86858994  .00000031  00000+0  15045-3 0  9994
2 32953  82.5020 322.8925 0019336 202.3821 157.6417 12.43124835682350
FENGYUN 3A              
1 32958U 08026A   23158.90310603  .00000167  00000+0  10052-3 0  9998
2 32958  98.5547 113.0261 0009936  77.4329 282.7958 14.18874579778625
PRISM (HITOMI)          
1 33493U 09002B   23158.82216111  .00010540  00000+0  71909-3 0  9992
2 33493  98.2456 172.6861 0018159  80.8157 279.5122 15.06289874782333
STARS (KUKAI)           
1 33498U 09002G   23158.75858811  .00002816  00000+0  36176-3 0  9992
2 33498  98.1368  61.4628 0010193 176.0939 184.0355 14.81974580774012
KKS-1 (KISEKI)          
1 33499U 09002H   23158.84382861  .00001306  00000+0  19267-3 0  9995
2 33499  98.1742  51.0414 0007354 255.9715 104.0677 14.77053909772689
NOAA 19                 
1 33591U 09005A   23158.83298822  .00000246  00000+0  15736-3 0  9992
2 33591  99.0998 204.6104 0012777 268.9240  91.0467 14.12765599738362
SWISSCUBE               
1 35932U 09051B   23158.92417969  .00001110  00000+0  25371-3 0  9996
2 35932  98.5223  29.0617 0008418  42.2150 317.9695 14.57713977727864
BEESAT-1                
1 35933U 09051C   23158.88545068  .00000959  00000+0  22115-3 0  9997
2 35933  98.5153  30.3589 0006824  54.8828 305.3009 14.57623568727934
ITUPSAT1                
1 35935U 09051E   23158.91960199  .00000882  00000+0  20824-3 0  9999
2 35935  98.5252  30.3424 0009138  57.0587 303.1488 14.56674268727616
XIWANG-1 (HOPE-1)       
1 36122U 09072B   23158.88936709 -.00000048  00000+0 -13010-4 0  9993
2 36122 100.2373 123.0596 0006815 242.2612 117.7811 13.16383384647572
CARTOSAT-2B             
1 36795U 10035A   23158.92426097  .00001077  00000+0  15360-3 0  9999
2 36795  97.9108 219.4408 0013710 168.4681 191.6847 14.78701051696517
TISAT 1                 
1 36799U 10035E   23158.51596892  .00005694  00000+0  50973-3 0  9997
2 36799  98.1370  27.7705 0011371  15.9091 344.2484 14.96209782700981
FENGYUN 3B              
1 37214U 10059A   23158.94397319  .00000103  00000+0  77628-4 0  9993
2 37214  99.0837 176.1584 0023253  73.2835  39.0768 14.14344011651165
JUGNU                   
1 37839U 11058B   23158.74484487  .00000443  00000+0  93283-4 0  9999
2 37839  19.9591 180.2212 0019047 114.5711  41.7629 14.12959827602446
SRMSAT                  
1 37841U 11058D   23158.66552427  .00000445  00000+0  99106-4 0  9995
2 37841  19.9720 267.5969 0011758 287.6745 100.9101 14.10899280601469
M-CUBED & EXP-1 PRIME   
1 37855U 11061F   23158.83075389  .00032052  00000+0  10115-2 0  9990
2 37855 101.7066 115.2769 0120957  69.1806 292.2323 15.25897586635605
HORYU-2                 
1 38340U 12025D   23158.78722751  .00002917  00000+0  40629-3 0  9998
2 38340  98.1704 247.3193 0011456 161.9243 198.2377 14.78521875584700
METOP-B                 
1 38771U 12049A   23158.89817008  .00000157  00000+0  91506-4 0  9999
2 38771  98.6788 218.4280 0001465  88.0796  85.1499 14.21495276556231
SARAL                   
1 39086U 13009A   23158.87762005  .00000117  00000+0  59714-4 0  9991
2 39086  98.5478 344.3032 0001326 349.2606  10.8549 14.32220145537354
AAUSAT 3                
1 39087U 13009B   23158.80825845  .00000739  00000+0  26472-3 0  9991
2 39087  98.3819 354.1915 0010946 288.2266  71.7729 14.36787386538269
STRAND-1                
1 39090U 13009E   23158.80305898  .00000342  00000+0  13360-3 0  9998
2 39090  98.3889 352.4222 0007806 296.5688  63.4698 14.35598000538370
BRITE-AUSTRIA           
1 39091U 13009F   23158.80096471  .00000224  00000+0  92743-4 0  9995
2 39091  98.3916 351.6456 0009336 303.3665  56.6627 14.35485765538407
UNIBRITE                
1 39092U 13009G   23158.78477606  .00000225  00000+0  93382-4 0  9997
2 39092  98.3955 351.4642 0008203 298.8677  61.1686 14.35357829538358
SOMP                    
1 39134U 13015E   23158.88118663  .00104857  00000+0  12323-2 0  9997
2 39134  64.8496 317.3862 0018294 259.8708 100.0375 15.60692937561536
BEESAT-3                
1 39135U 13015F   23158.89528707  .00037433  00000+0  85557-3 0  9998
2 39135  64.8592   8.2020 0020698 241.6532 118.2519 15.42425876560504
BEESAT-2                
1 39136U 13015G   23158.85713496  .00029665  00000+0  74599-3 0  9998
2 39136  64.8691  19.7418 0026974 273.2208  86.5843 15.39469977560241
NEE-01 PEGASO           
1 39151U 13018B   23158.53895234  .00002663  00000+0  33572-3 0  9999
2 39151  98.0087 268.6924 0016272 178.5508 181.5755 14.82744852546262
CUBEBUG-1 (CAPITAN BETO)
1 39153U 13018D   23158.74475893  .00003333  00000+0  40810-3 0  9997
2 39153  98.0382 274.8962 0016161 172.0118 188.1356 14.83799466546392
ESTCUBE 1               
1 39161U 13021C   23158.71843166  .00001793  00000+0  27822-3 0  9995
2 39161  97.8719 231.2518 0009249  10.1746 349.9648 14.74290540541737
